JILIN-1                 
1 40961U 15057D   26192.92400759  .00000429  00000+0  65719-4 0  9990
2 40961  97.6517 191.0638 0016912 177.4219 182.7083 14.78198356579265
JILIN-1 03              
1 41914U 17002B   26192.94692121  .00008636  00000+0  20316-3 0  9990
2 41914  97.1947 199.6918 0007965  87.9461 272.2699 15.42176806525675
JILIN-1 04              
1 43022U 17074A   26192.92802038  .00008112  00000+0  18559-3 0  9994
2 43022  97.4872 303.2126 0005257 108.8982 251.2836 15.43073528478084
JILIN-1 05              
1 43023U 17074B   26192.90797699  .00004437  00000+0  13624-3 0  9993
2 43023  97.4878 299.4041 0006306 133.7361 226.4405 15.34251722477794
JILIN-1 06              
1 43024U 17074C   26192.94850164  .00003520  00000+0  10952-3 0  9998
2 43024  97.4804 296.4217 0007875 143.8550 216.3226 15.33972592477636
JILIN-1 07              
1 43159U 18008E   26192.93113330  .00005570  00000+0  16555-3 0  9993
2 43159  97.1767 212.2049 0007078 341.8796  18.2195 15.35129836468794
JILIN-1 08              
1 43160U 18008F   26192.94872930  .00003770  00000+0  11694-3 0  9993
2 43160  97.1803 211.5108 0005714   4.9721 355.1578 15.33986912468742
JILIN-1 09              
1 43943U 19005B   26192.92256132  .00002718  00000+0  12675-3 0  9999
2 43943  97.4745 287.6773 0002607  42.8950 317.2488 15.20724019412904
JILIN-1 10              
1 43946U 19005E   26192.91551628  .00003544  00000+0  14070-3 0  9998
2 43946  97.4795 291.7247 0008242 180.8643 179.2582 15.25984334413081
