{"fetched_at":"2026-07-12T07:15:44.940Z","source":"https://celestrak.org/NORAD/elements/gp.php?NAME=JILIN&FORMAT=JSON","constellation":"jilin-1-early","records":[{"OBJECT_NAME":"JILIN-1","OBJECT_ID":"2015-057D","EPOCH":"2026-07-11T22:10:34.255776","CLASSIFICATION_TYPE":"U","MEAN_MOTION":14.78198356,"ECCENTRICITY":0.00169128,"INCLINATION":97.6517,"RA_OF_ASC_NODE":191.0638,"ARG_OF_PERICENTER":177.4219,"MEAN_ANOMALY":182.7083,"EPHEMERIS_TYPE":0,"NORAD_CAT_ID":40961,"ELEMENT_SET_NO":999,"REV_AT_EPOCH":57926,"BSTAR":0.000065719324,"MEAN_MOTION_DOT":0.00000429,"MEAN_MOTION_DDOT":0},{"OBJECT_NAME":"JILIN-1 03","OBJECT_ID":"2017-002B","EPOCH":"2026-07-11T22:43:33.992544","CLASSIFICATION_TYPE":"U","MEAN_MOTION":15.42176806,"ECCENTRICITY":0.00079656,"INCLINATION":97.1947,"RA_OF_ASC_NODE":199.6918,"ARG_OF_PERICENTER":87.9461,"MEAN_ANOMALY":272.2699,"EPHEMERIS_TYPE":0,"NORAD_CAT_ID":41914,"ELEMENT_SET_NO":999,"REV_AT_EPOCH":52567,"BSTAR":0.00020316391,"MEAN_MOTION_DOT":0.00008636,"MEAN_MOTION_DDOT":0},{"OBJECT_NAME":"JILIN-1 04","OBJECT_ID":"2017-074A","EPOCH":"2026-07-11T22:16:20.960832","CLASSIFICATION_TYPE":"U","MEAN_MOTION":15.43073528,"ECCENTRICITY":0.00052574,"INCLINATION":97.4872,"RA_OF_ASC_NODE":303.2126,"ARG_OF_PERICENTER":108.8982,"MEAN_ANOMALY":251.2836,"EPHEMERIS_TYPE":0,"NORAD_CAT_ID":43022,"ELEMENT_SET_NO":999,"REV_AT_EPOCH":47808,"BSTAR":0.00018558635,"MEAN_MOTION_DOT":0.00008112,"MEAN_MOTION_DDOT":0},{"OBJECT_NAME":"JILIN-1 05","OBJECT_ID":"2017-074B","EPOCH":"2026-07-11T21:47:29.211936","CLASSIFICATION_TYPE":"U","MEAN_MOTION":15.34251722,"ECCENTRICITY":0.00063064,"INCLINATION":97.4878,"RA_OF_ASC_NODE":299.4041,"ARG_OF_PERICENTER":133.7361,"MEAN_ANOMALY":226.4405,"EPHEMERIS_TYPE":0,"NORAD_CAT_ID":43023,"ELEMENT_SET_NO":999,"REV_AT_EPOCH":47779,"BSTAR":0.00013623686,"MEAN_MOTION_DOT":0.00004437,"MEAN_MOTION_DDOT":0},{"OBJECT_NAME":"JILIN-1 06","OBJECT_ID":"2017-074C","EPOCH":"2026-07-11T22:45:50.541696","CLASSIFICATION_TYPE":"U","MEAN_MOTION":15.33972592,"ECCENTRICITY":0.00078759,"INCLINATION":97.4804,"RA_OF_ASC_NODE":296.4217,"ARG_OF_PERICENTER":143.855,"MEAN_ANOMALY":216.3226,"EPHEMERIS_TYPE":0,"NORAD_CAT_ID":43024,"ELEMENT_SET_NO":999,"REV_AT_EPOCH":47763,"BSTAR":0.00010952131,"MEAN_MOTION_DOT":0.0000352,"MEAN_MOTION_DDOT":0},{"OBJECT_NAME":"JILIN-1 07","OBJECT_ID":"2018-008E","EPOCH":"2026-07-11T22:20:49.917120","CLASSIFICATION_TYPE":"U","MEAN_MOTION":15.35129836,"ECCENTRICITY":0.00070785,"INCLINATION":97.1767,"RA_OF_ASC_NODE":212.2049,"ARG_OF_PERICENTER":341.8796,"MEAN_ANOMALY":18.2195,"EPHEMERIS_TYPE":0,"NORAD_CAT_ID":43159,"ELEMENT_SET_NO":999,"REV_AT_EPOCH":46879,"BSTAR":0.00016555462,"MEAN_MOTION_DOT":0.0000557,"MEAN_MOTION_DDOT":0},{"OBJECT_NAME":"JILIN-1 08","OBJECT_ID":"2018-008F","EPOCH":"2026-07-11T22:46:10.211520","CLASSIFICATION_TYPE":"U","MEAN_MOTION":15.33986912,"ECCENTRICITY":0.0005714,"INCLINATION":97.1803,"RA_OF_ASC_NODE":211.5108,"ARG_OF_PERICENTER":4.9721,"MEAN_ANOMALY":355.1578,"EPHEMERIS_TYPE":0,"NORAD_CAT_ID":43160,"ELEMENT_SET_NO":999,"REV_AT_EPOCH":46874,"BSTAR":0.00011694177,"MEAN_MOTION_DOT":0.0000377,"MEAN_MOTION_DDOT":0},{"OBJECT_NAME":"JILIN-1 09","OBJECT_ID":"2019-005B","EPOCH":"2026-07-11T22:08:29.298048","CLASSIFICATION_TYPE":"U","MEAN_MOTION":15.20724019,"ECCENTRICITY":0.00026075,"INCLINATION":97.4745,"RA_OF_ASC_NODE":287.6773,"ARG_OF_PERICENTER":42.895,"MEAN_ANOMALY":317.2488,"EPHEMERIS_TYPE":0,"NORAD_CAT_ID":43943,"ELEMENT_SET_NO":999,"REV_AT_EPOCH":41290,"BSTAR":0.00012674857,"MEAN_MOTION_DOT":0.00002718,"MEAN_MOTION_DDOT":0},{"OBJECT_NAME":"JILIN-1 10","OBJECT_ID":"2019-005E","EPOCH":"2026-07-11T21:58:20.606592","CLASSIFICATION_TYPE":"U","MEAN_MOTION":15.25984334,"ECCENTRICITY":0.0008242,"INCLINATION":97.4795,"RA_OF_ASC_NODE":291.7247,"ARG_OF_PERICENTER":180.8643,"MEAN_ANOMALY":179.2582,"EPHEMERIS_TYPE":0,"NORAD_CAT_ID":43946,"ELEMENT_SET_NO":999,"REV_AT_EPOCH":41308,"BSTAR":0.00014070444,"MEAN_MOTION_DOT":0.00003544,"MEAN_MOTION_DDOT":0}]}
